SAC-D
1 37673U 11024A   13318.46870394 +.00000000 +00000+0 +13782-4 6  9148
2 37673  98.0128 323.7615 0001321  86.3497 139.5266 14.72342682130170
